[
    {
        "Altitude(m)": 556966.7940367344,
        "Argument of Periapsis(deg)": 0.006622991110713501,
        "Eccentricity": 0.0,
        "Inclination(deg)": 53.0,
        "Latitude(deg)": 40.09230641560892,
        "Longitude(deg)": 130.11023508335248,
        "Mean Anomaly(deg)": 126.45529286757758,
        "RAAN(deg)": 89.99014336852801,
        "Satellite Name": "Starlink Shell 1 403",
        "Satellite Number": 403,
        "Semi-Major Axis(m)": 6931778.249405717,
        "Time(s)": 190
    },
    {
        "Altitude(m)": 556883.8538401631,
        "Argument of Periapsis(deg)": 0.0069715695902247375,
        "Eccentricity": 0.0,
        "Inclination(deg)": 53.0,
        "Latitude(deg)": 39.70106984216015,
        "Longitude(deg)": 130.70710405588534,
        "Mean Anomaly(deg)": 127.08212407113432,
        "RAAN(deg)": 89.98962459845053,
        "Satellite Name": "Starlink Shell 1 403",
        "Satellite Number": 403,
        "Semi-Major Axis(m)": 6931778.249405717,
        "Time(s)": 200
    },
    {
        "Altitude(m)": 556800.7206136779,
        "Argument of Periapsis(deg)": 0.007320148069735974,
        "Eccentricity": 0.0,
        "Inclination(deg)": 53.0,
        "Latitude(deg)": 39.306338878895,
        "Longitude(deg)": 131.2967821710282,
        "Mean Anomaly(deg)": 127.70895527469104,
        "RAAN(deg)": 89.98910582837307,
        "Satellite Name": "Starlink Shell 1 403",
        "Satellite Number": 403,
        "Semi-Major Axis(m)": 6931778.249405717,
        "Time(s)": 210
    },
    {
        "Altitude(m)": 556717.4485300679,
        "Argument of Periapsis(deg)": 0.007668726549247212,
        "Eccentricity": 0.0,
        "Inclination(deg)": 53.0,
        "Latitude(deg)": 38.908199504955945,
        "Longitude(deg)": 131.87938794583823,
        "Mean Anomaly(deg)": 128.33578647824774,
        "RAAN(deg)": 89.9885870582956,
        "Satellite Name": "Starlink Shell 1 403",
        "Satellite Number": 403,
        "Semi-Major Axis(m)": 6931778.249405717,
        "Time(s)": 220
    },
    {
        "Altitude(m)": 556634.0920427918,
        "Argument of Periapsis(deg)": 0.00801730502875845,
        "Eccentricity": 0.0,
        "Inclination(deg)": 53.0,
        "Latitude(deg)": 38.50673588760856,
        "Longitude(deg)": 132.4550406261481,
        "Mean Anomaly(deg)": 128.96261768180446,
        "RAAN(deg)": 89.98806828821812,
        "Satellite Name": "Starlink Shell 1 403",
        "Satellite Number": 403,
        "Semi-Major Axis(m)": 6931778.249405717,
        "Time(s)": 230
    },
    {
        "Altitude(m)": 556550.705858272,
        "Argument of Periapsis(deg)": 0.008365883508269684,
        "Eccentricity": 0.0,
        "Inclination(deg)": 53.0,
        "Latitude(deg)": 38.102030400856535,
        "Longitude(deg)": 133.02386048631314,
        "Mean Anomaly(deg)": 129.58944888536115,
        "RAAN(deg)": 89.98754951814065,
        "Satellite Name": "Starlink Shell 1 403",
        "Satellite Number": 403,
        "Semi-Major Axis(m)": 6931778.249405717,
        "Time(s)": 240
    },
    {
        "Altitude(m)": 556467.3449079826,
        "Argument of Periapsis(deg)": 0.008714461987780921,
        "Eccentricity": 0.0,
        "Inclination(deg)": 53.0,
        "Latitude(deg)": 37.69416364630244,
        "Longitude(deg)": 133.58596763066984,
        "Mean Anomaly(deg)": 130.21628008891793,
        "RAAN(deg)": 89.98703074806318,
        "Satellite Name": "Starlink Shell 1 403",
        "Satellite Number": 403,
        "Semi-Major Axis(m)": 6931778.249405717,
        "Time(s)": 250
    },
    {
        "Altitude(m)": 556384.0643204215,
        "Argument of Periapsis(deg)": 0.009063040467292158,
        "Eccentricity": 0.0,
        "Inclination(deg)": 53.0,
        "Latitude(deg)": 37.283214476005945,
        "Longitude(deg)": 134.14148232184985,
        "Mean Anomaly(deg)": 130.8431112924746,
        "RAAN(deg)": 89.9865119779857,
        "Satellite Name": "Starlink Shell 1 403",
        "Satellite Number": 403,
        "Semi-Major Axis(m)": 6931778.249405717,
        "Time(s)": 260
    },
    {
        "Altitude(m)": 556300.9193928982,
        "Argument of Periapsis(deg)": 0.009411618946803396,
        "Eccentricity": 0.0,
        "Inclination(deg)": 53.0,
        "Latitude(deg)": 36.869260017113035,
        "Longitude(deg)": 134.690525322459,
        "Mean Anomaly(deg)": 131.4699424960313,
        "RAAN(deg)": 89.98599320790824,
        "Satellite Name": "Starlink Shell 1 403",
        "Satellite Number": 403,
        "Semi-Major Axis(m)": 6931778.249405717,
        "Time(s)": 270
    },
    {
        "Altitude(m)": 556217.965563241,
        "Argument of Periapsis(deg)": 0.009760197426314633,
        "Eccentricity": 0.0,
        "Inclination(deg)": 53.0,
        "Latitude(deg)": 36.452375698044314,
        "Longitude(deg)": 135.23321673663057,
        "Mean Anomaly(deg)": 132.09677369958806,
        "RAAN(deg)": 89.98547443783076,
        "Satellite Name": "Starlink Shell 1 403",
        "Satellite Number": 403,
        "Semi-Major Axis(m)": 6931778.249405717,
        "Time(s)": 280
    },
    {
        "Altitude(m)": 556135.2583813492,
        "Argument of Periapsis(deg)": 0.01010877590582587,
        "Eccentricity": 0.0,
        "Inclination(deg)": 53.0,
        "Latitude(deg)": 36.032635276039926,
        "Longitude(deg)": 135.76967637658913,
        "Mean Anomaly(deg)": 132.72360490314475,
        "RAAN(deg)": 89.98495566775328,
        "Satellite Name": "Starlink Shell 1 403",
        "Satellite Number": 403,
        "Semi-Major Axis(m)": 6931778.249405717,
        "Time(s)": 290
    },
    {
        "Altitude(m)": 556052.8534806686,
        "Argument of Periapsis(deg)": 0.010457354385337106,
        "Eccentricity": 0.0,
        "Inclination(deg)": 53.0,
        "Latitude(deg)": 35.610110865877175,
        "Longitude(deg)": 136.300024140743,
        "Mean Anomaly(deg)": 133.35043610670147,
        "RAAN(deg)": 89.98443689767582,
        "Satellite Name": "Starlink Shell 1 403",
        "Satellite Number": 403,
        "Semi-Major Axis(m)": 6931778.249405717,
        "Time(s)": 300
    },
    {
        "Altitude(m)": 555970.8065495733,
        "Argument of Periapsis(deg)": 0.010805932864848343,
        "Eccentricity": 0.0,
        "Inclination(deg)": 53.0,
        "Latitude(deg)": 35.18487296959125,
        "Longitude(deg)": 136.8243788898309,
        "Mean Anomaly(deg)": 133.97726731025813,
        "RAAN(deg)": 89.98391812759834,
        "Satellite Name": "Starlink Shell 1 403",
        "Satellite Number": 403,
        "Semi-Major Axis(m)": 6931778.249405717,
        "Time(s)": 310
    },
    {
        "Altitude(m)": 555889.1733026657,
        "Argument of Periapsis(deg)": 0.01115451134435958,
        "Eccentricity": 0.0,
        "Inclination(deg)": 53.0,
        "Latitude(deg)": 34.75699050703693,
        "Longitude(deg)": 137.34285884628713,
        "Mean Anomaly(deg)": 134.60409851381488,
        "RAAN(deg)": 89.98339935752087,
        "Satellite Name": "Starlink Shell 1 403",
        "Satellite Number": 403,
        "Semi-Major Axis(m)": 6931778.249405717,
        "Time(s)": 320
    },
    {
        "Altitude(m)": 555808.009452039,
        "Argument of Periapsis(deg)": 0.011503089823870818,
        "Eccentricity": 0.0,
        "Inclination(deg)": 53.0,
        "Latitude(deg)": 34.32653084714588,
        "Longitude(deg)": 137.8555820033763,
        "Mean Anomaly(deg)": 135.23092971737162,
        "RAAN(deg)": 89.9828805874434,
        "Satellite Name": "Starlink Shell 1 403",
        "Satellite Number": 403,
        "Semi-Major Axis(m)": 6931778.249405717,
        "Time(s)": 330
    },
    {
        "Altitude(m)": 555727.3706784735,
        "Argument of Periapsis(deg)": 0.011851668303382053,
        "Eccentricity": 0.0,
        "Inclination(deg)": 53.0,
        "Latitude(deg)": 33.89355983974669,
        "Longitude(deg)": 138.3626650306682,
        "Mean Anomaly(deg)": 135.8577609209283,
        "RAAN(deg)": 89.98236181736593,
        "Satellite Name": "Starlink Shell 1 403",
        "Satellite Number": 403,
        "Semi-Major Axis(m)": 6931778.249405717,
        "Time(s)": 340
    },
    {
        "Altitude(m)": 555647.3126026033,
        "Argument of Periapsis(deg)": 0.012200246782893292,
        "Eccentricity": 0.0,
        "Inclination(deg)": 53.0,
        "Latitude(deg)": 33.4581418478206,
        "Longitude(deg)": 138.86422370106067,
        "Mean Anomaly(deg)": 136.48459212448503,
        "RAAN(deg)": 89.98184304728845,
        "Satellite Name": "Starlink Shell 1 403",
        "Satellite Number": 403,
        "Semi-Major Axis(m)": 6931778.249405717,
        "Time(s)": 350
    },
    {
        "Altitude(m)": 555567.890756085,
        "Argument of Periapsis(deg)": 0.012548825262404526,
        "Eccentricity": 0.0,
        "Inclination(deg)": 53.0,
        "Latitude(deg)": 33.02033978008034,
        "Longitude(deg)": 139.36037332595643,
        "Mean Anomaly(deg)": 137.11142332804175,
        "RAAN(deg)": 89.98132427721097,
        "Satellite Name": "Starlink Shell 1 403",
        "Satellite Number": 403,
        "Semi-Major Axis(m)": 6931778.249405717,
        "Time(s)": 360
    },
    {
        "Altitude(m)": 555489.1605527542,
        "Argument of Periapsis(deg)": 0.012897403741915765,
        "Eccentricity": 0.0,
        "Inclination(deg)": 53.0,
        "Latitude(deg)": 32.580215123772156,
        "Longitude(deg)": 139.85122768521535,
        "Mean Anomaly(deg)": 137.73825453159847,
        "RAAN(deg)": 89.98080550713351,
        "Satellite Name": "Starlink Shell 1 403",
        "Satellite Number": 403,
        "Semi-Major Axis(m)": 6931778.249405717,
        "Time(s)": 370
    }
]